STARLINK-1284
1 45390U 20019AG  26061.01034373  .00088793  00000+0  15353-2 0  9992
2 45390  53.0497 167.8948 0002056 345.2023  14.8924 15.50235292329035
STARLINK-1286
1 45417U 20019BK  26061.00045618  .00043051  00000+0  75292-3 0  9992
2 45417  53.0497 167.6513 0002382  59.4163 300.7080 15.50231395329032
